#aV2014  6  3  0  0  0.00000000     288 DD+AD WGS84 FIT  NGA
## 1795 172800.00000000   300.00000000 56811 0.0000000000000
+   31     1  2  3  4  5  6  7  8 10 11 12 13 14 15 16 17 18
+         19 20 21 22 23 24 25 26 27 28 29 30 31 32  0  0  0
+          0  0  0  0  0  0  0  0  0  0  0  0  0  0  0  0  0
+          0  0  0  0  0  0  0  0  0  0  0  0  0  0  0  0  0
+          0  0  0  0  0  0  0  0  0  0  0  0  0  0  0  0  0
++         2  2  2  2  2  2  2  2  2  2  2  2  2  2  2  2  2
++         2  2  2  2  2  2  2  2  2  2  2  2  2  2  0  0  0
++         0  0  0  0  0  0  0  0  0  0  0  0  0  0  0  0  0
++         0  0  0  0  0  0  0  0  0  0  0  0  0  0  0  0  0
++         0  0  0  0  0  0  0  0  0  0  0  0  0  0  0  0  0
%c cc cc ccc ccc cccc cccc cccc cccc ccccc ccccc ccccc ccccc
%c cc cc ccc ccc cccc cccc cccc cccc ccccc ccccc ccccc ccccc
%f  0.0000000  0.000000000  0.00000000000  0.000000000000000
%f  0.0000000  0.000000000  0.00000000000  0.000000000000000
%i    0    0    0    0      0      0      0      0         0
%i    0    0    0    0      0      0      0      0         0
/*      NGA, ST. LOUIS,MO.                                  
/*   EPHEMERIS COMPUTED FROM  1 DAYS OF DATA                
/*   EPOCHA SMOOTHER                                       
/* CCCCCCCCCCCCCCCCCCCCCCCCCCCCCCCCCCCCCCCCCCCCCCCCCCCCCCCCC
*  2014  6  3 22 15  0.00000000
P  1  13268.572845 -17493.113309  14813.244026     14.262230                    
V  1   -825.179595  19028.338035  23300.943783      0.011264                    
P  2 -14301.883606  -7810.546705 -20750.682552    499.079875                    
V  2   4025.862046 -26735.623858   6700.893452      0.021782                    
P  3  23486.777021   3978.505527  11352.269594    373.420762                    
V  3  11691.634976  10240.211010 -26347.981314      0.048241                    
P  4  -8518.175153 -20002.585078 -15411.901043      7.045901                    
V  4   5253.069261 -18615.247499  21926.752963      0.001306                    
P  5 -23858.573893    203.232682 -11875.327553   -368.323683                    
V  5  13006.080369  -7897.048906 -26178.578588      0.027048                    
P  6  -6980.725056 -21381.910327 -14413.511414      7.722110                    
V  6   4657.403166 -17580.472687  23823.589770      0.016174                    
P  7   6196.763711 -25517.626877  -2381.638922    353.651811                    
V  7   2113.389224   3562.765546 -32064.488624      0.042701                    
P  8   2457.742450 -25213.218342   6968.129087     13.993475                    
V  8   4371.237600  -7867.422957 -31282.539762      0.003088                    
P 10 -11202.782406 -12237.517652 -21150.085069   -128.272363                    
V 10  24238.255321  -9626.203631  -6964.024958     -0.014328                    
P 11  14107.052048 -10530.137415  19354.336374   -494.365879                    
V 11   6024.082692  25357.543070   9381.857273     -0.031720                    
P 12 -23486.206618  11269.463861  -4591.807701    209.212717                    
V 12  -6130.892564   -111.975447  31781.719164      0.024760                    
P 13   4328.266670 -15715.859728 -21063.747110     -6.846551                    
V 13  19263.676946  18117.639010  -9782.030902     -0.038569                    
P 14  12245.785245  21289.839165  10525.119358    166.891060                    
V 14 -10875.631646  -7361.757353  27987.987501     -0.034579                    
P 15 -19701.054594   1673.244184  17810.987232   -183.249669                    
V 15 -17131.594416 -15002.873196 -17194.087330     -0.021583                    
P 16  23874.821924    636.360015 -12052.649691   -215.044944                    
V 16 -13903.226981   5915.456633 -26994.819486      0.020190                    
P 17 -13230.830686 -20908.153230  10213.459279    -98.490074                    
V 17  10749.823229   6708.697315  28160.817412     -0.030091                    
P 18  -7264.470966  17919.049227  18529.378017    323.301781                    
V 18 -21975.870215   6581.693159 -15696.634631      0.022427                    
P 19  20109.807632   2952.543469  17190.496454   -460.672350                    
V 19  14755.383808  16270.013290 -19446.781913     -0.021816                    
P 20  21151.993743 -14860.946424  -6135.542901    196.253465                    
V 20   8484.977339    211.962884  29700.345576      0.039716                    
P 21  -2432.223241  26170.326456   1857.465601   -364.931872                    
V 21  -4280.567876   1037.664590 -31282.034159     -0.022071                    
P 22   6885.094901  14600.759887  21310.871751    239.297231                    
V 22 -24800.494876   9928.169739   1057.604509      0.027575                    
P 23  14482.917697  -7425.969001 -20952.302626    -25.839937                    
V 23  20390.339286  17410.209072   7463.563510     -0.030423                    
P 24 -14541.326878  13278.333306  17756.990924    -29.480029                    
V 24   1459.171135 -22661.977282  18208.977381     -0.005681                    
P 25 -14714.318651  16462.711516 -14734.748986     24.587847                    
V 25 -17977.915899   5112.314688  23914.450310      0.003206                    
P 26 -21556.327968 -11397.941016  10212.571145     58.082101                    
V 26  -8459.929356 -11128.656160 -28178.732535     -0.120866                    
P 27  22799.105707  11152.196993   7928.862449    -12.629489                    
V 27   6305.511300   8222.910461 -29608.498124      0.025159                    
P 28  -1724.104197 -15010.318487  22439.286724    359.670647                    
V 28  25788.859920  -7917.322500  -3536.135931      0.028115                    
P 29  -4311.380439  15526.407642 -21085.717596    537.192544                    
V 29 -20459.046318 -17357.801750  -8534.652574      0.027557                    
P 30    493.179074 -25423.412997   7604.285381    -20.695602                    
V 30   4874.415825  -8798.755147 -29725.678561     -0.060241                    
P 31   8882.815362  17420.667083 -17672.705594    334.119184                    
V 31  -5680.217906  22158.518417  19125.394082     -0.000766                    
P 32  25551.026893  -4065.416446   4600.350824   -414.671505                    
V 32  -4615.572994   5129.168999  31076.597845      0.082905                    
EOF
